{
"type": "FeatureCollection",
"name": "Invasao",
"crs": { "type": "name", "properties": { "name": "urn:ogc:def:crs:OGC:1.3:CRS84" } },
"features": [
{"type":"Feature","properties":{"fid":1,"Linha_invasao":"Limite de invasões","Loteamento":null},"geometry":{"type":"LineString","coordinates":[[-34.830110041267552,-7.023761498527649],[-34.830056382820089,-7.023358122690493],[-34.83004447830448,-7.023268481355725],[-34.830032573797808,-7.023178840019212],[-34.830013644738926,-7.023181022196987],[-34.830021784901838,-7.023093522981165],[-34.830021687480986,-7.023020821019606],[-34.830007468424945,-7.022908693079004],[-34.82999666195149,-7.022823475842301],[-34.829983580441564,-7.0227203181327]]}},
{"type":"Feature","properties":{"fid":2,"Linha_invasao":"Limite de invasões","Loteamento":null},"geometry":{"type":"LineString","coordinates":[[-34.829988769547001,-7.022621529714639],[-34.829980662716416,-7.022549640048721],[-34.829970833191474,-7.022462473827509],[-34.829963030378266,-7.022393280021924],[-34.829951376835254,-7.022289938622357],[-34.829938203278125,-7.022173117907291],[-34.829929230067734,-7.022174303348248],[-34.829910989783905,-7.022012551583516]]}},
{"type":"Feature","properties":{"fid":3,"Linha_invasao":"Limite de invasões","Loteamento":null},"geometry":{"type":"LineString","coordinates":[[-34.82994401423548,-7.021950874441186],[-34.829936272479834,-7.021860764827439],[-34.829928530731635,-7.02177065521238],[-34.829920401904033,-7.021676040115239],[-34.829914208517089,-7.021603952421264],[-34.82990724096247,-7.02152285376464],[-34.829899516978102,-7.021433748278859],[-34.829859092644732,-7.021438173344171],[-34.829850576973442,-7.02133905513782],[-34.829842370971448,-7.02124354122844],[-34.82983120637396,-7.021113590534459],[-34.829817276592067,-7.020951454130665]]}},
{"type":"Feature","properties":{"fid":4,"Linha_invasao":"Limite de invasões","Loteamento":null},"geometry":{"type":"LineString","coordinates":[[-34.829681681397631,-7.019397110133342],[-34.829663723954802,-7.019271646718653],[-34.829643008784387,-7.019126915703376],[-34.829623690040968,-7.018991940970255]]}},
{"type":"Feature","properties":{"fid":5,"Linha_invasao":"Limite de invasões","Loteamento":null},"geometry":{"type":"LineString","coordinates":[[-34.82959487588338,-7.01889151010427],[-34.829579024459306,-7.018801180063766],[-34.829562063447185,-7.018704526917698],[-34.829613465597355,-7.018704250936678],[-34.829590599081996,-7.018573944966501],[-34.82965896896102,-7.018565648521784],[-34.829648170827362,-7.018504114827333],[-34.829630956421447,-7.018406017630929],[-34.829606699779575,-7.01826778975834],[-34.829581693091896,-7.018125287553716]]}},
{"type":"Feature","properties":{"fid":6,"Linha_invasao":"Limite de invasões","Loteamento":null},"geometry":{"type":"LineString","coordinates":[[-34.829548761043519,-7.018009203265738],[-34.829517503527043,-7.017899237300507],[-34.829475330720371,-7.017750870511985],[-34.829452259730431,-7.017669705146286],[-34.829424881367146,-7.017573386081785],[-34.829394260073094,-7.01746744882086],[-34.829373303793716,-7.017283274373388],[-34.829350734202194,-7.017158338399835],[-34.829328164631086,-7.01703340242145],[-34.8293006326601,-7.016908972234575]]}},
{"type":"Feature","properties":{"fid":7,"Linha_invasao":"Limite de invasões","Loteamento":null},"geometry":{"type":"LineString","coordinates":[[-34.829312018475463,-7.016841871067203],[-34.829293282398936,-7.016735001465491],[-34.829338355175651,-7.016727113656421],[-34.829314861139373,-7.016648613818215],[-34.829291512574649,-7.016570599999418],[-34.829261678313308,-7.016470915670491],[-34.829225358366884,-7.016349560827703],[-34.829186444167711,-7.016219537772661],[-34.829162845135187,-7.016104224416913],[-34.829144692046121,-7.016015521832315],[-34.829113831820074,-7.015864727432049],[-34.829090701675462,-7.015786656953737],[-34.829059861499452,-7.01568256297741],[-34.82901799897035,-7.015553304673225],[-34.828976136472654,-7.015424046358649],[-34.828935701291783,-7.015299195050594],[-34.828893871825144,-7.015170038514876]]}},
{"type":"Feature","properties":{"fid":8,"Linha_invasao":"Limite de invasões","Loteamento":null},"geometry":{"type":"LineString","coordinates":[[-34.82886893425254,-7.015066182585651],[-34.82883550785526,-7.014933661578239],[-34.82880208148601,-7.014801140562859],[-34.828790164403067,-7.014753894483492],[-34.828768655144785,-7.014668619539514],[-34.828735228831576,-7.014536098508181],[-34.828701802546398,-7.014403577468863],[-34.828668376289237,-7.014271056421528],[-34.828634950060106,-7.014138535366239]]}},
{"type":"Feature","properties":{"fid":9,"Linha_invasao":"Limite de invasões","Loteamento":null},"geometry":{"type":"LineString","coordinates":[[-34.828609054694695,-7.014036922254034],[-34.828573853105837,-7.013904804098581],[-34.828538651545813,-7.013772685934645],[-34.82850345001463,-7.013640567762224],[-34.828468248512287,-7.01350844958132],[-34.828433047038779,-7.013376331391965],[-34.828398748630292,-7.013248024312767],[-34.82838112465236,-7.013252790664943],[-34.828352438028681,-7.013155081281328],[-34.828321861751242,-7.013050935487462],[-34.828291285492888,-7.012946789687699],[-34.828253065196783,-7.012816607429612]]}},
{"type":"Feature","properties":{"fid":10,"Linha_invasao":"Limite de invasões","Loteamento":null},"geometry":{"type":"LineString","coordinates":[[-34.828221244421137,-7.012710999429309],[-34.828183940931986,-7.012580550816645],[-34.828154098161853,-7.012476191920042],[-34.828124255410565,-7.01237183301766],[-34.828094412678084,-7.012267474109504],[-34.828064569964454,-7.012163115195536],[-34.828034727269653,-7.01205875627584],[-34.828004884593682,-7.011954397350316],[-34.82797504193654,-7.011850038419031],[-34.827945199298235,-7.011745679481989],[-34.827907896026822,-7.011615230802539]]}},
{"type":"Feature","properties":{"fid":11,"Linha_invasao":"Limite de invasões","Loteamento":null},"geometry":{"type":"LineString","coordinates":[[-34.827878423967455,-7.011508074182989],[-34.827841188665865,-7.011377606119429],[-34.827811400445761,-7.011273231662084],[-34.827781612244458,-7.011168857198959],[-34.827751824061963,-7.011064482730088],[-34.82772203589829,-7.010960108255469],[-34.827692247753411,-7.010855733775035],[-34.827662459627355,-7.010751359288873],[-34.827632671520099,-7.01064698479698],[-34.827602883431659,-7.01054261029929],[-34.827565648347544,-7.01041214216907]]}},
{"type":"Feature","properties":{"fid":12,"Linha_invasao":"Limite de invasões","Loteamento":null},"geometry":{"type":"LineString","coordinates":[[-34.827534825725529,-7.010312090225149],[-34.827498328186614,-7.010181436174959],[-34.827469130176418,-7.010076912928455],[-34.827439932184809,-7.009972389676324],[-34.827410734211803,-7.009867866418602],[-34.827381536257391,-7.009763343155253],[-34.827352338321582,-7.009658819886226],[-34.827323140404367,-7.009554296611623],[-34.827293942505761,-7.009449773331377],[-34.827266062890679,-7.009344910275599],[-34.827238136964162,-7.009240059155508],[-34.827203229581535,-7.009108995247821],[-34.827168322227259,-7.008977931331844]]}},
{"type":"Feature","properties":{"fid":13,"Linha_invasao":"Limite de invasões","Loteamento":null},"geometry":{"type":"LineString","coordinates":[[-34.827125974135534,-7.008838648070118],[-34.827088580458991,-7.008707985980488],[-34.827051186811971,-7.008577323881797],[-34.827021271915612,-7.008472794196307],[-34.826991357038146,-7.008368264505036],[-34.826961442179574,-7.008263734807948],[-34.826931527339887,-7.008159205105095],[-34.826901612519094,-7.00805467539643],[-34.826864219019676,-7.007924013252404],[-34.826826825549773,-7.007793351099385]]}},
{"type":"Feature","properties":{"fid":14,"Linha_invasao":"Limite de invasões","Loteamento":null},"geometry":{"type":"LineString","coordinates":[[-34.826792202190418,-7.007667568215288],[-34.826755781944833,-7.007536789080318],[-34.826719361728294,-7.007406009936528],[-34.82669022557598,-7.007301386615225],[-34.826661089442247,-7.007196763288261],[-34.826631953327109,-7.007092139955717],[-34.826602817230558,-7.006987516617539],[-34.826573681152603,-7.006882893273784],[-34.826537261081292,-7.006752114086137],[-34.826500841039028,-7.006621334889752]]}},
{"type":"Feature","properties":{"fid":15,"Linha_invasao":"Limite de invasões","Loteamento":null},"geometry":{"type":"LineString","coordinates":[[-34.826460673241137,-7.006504370915303],[-34.826423305409698,-7.00637378054772],[-34.826385937607718,-7.006243190171039],[-34.826348569835226,-7.006112599785348],[-34.826311202092214,-7.005982009390626],[-34.826273834378654,-7.005851418986791],[-34.826236466694581,-7.005720828573979],[-34.826199099039975,-7.005590238152104],[-34.826161731414849,-7.005459647721167]]}},
{"type":"Feature","properties":{"fid":16,"Linha_invasao":"Limite de invasões","Loteamento":null},"geometry":{"type":"LineString","coordinates":[[-34.826124463515924,-7.005333401390292],[-34.826089873417125,-7.005202099087803],[-34.826055558417458,-7.005070738241431],[-34.826029647952694,-7.004937588891709],[-34.826003738171266,-7.004804439395764],[-34.825984557834062,-7.004669857861249],[-34.825966107990972,-7.004535120876353],[-34.825947658168324,-7.004400383887291],[-34.825929208366134,-7.004265646893998],[-34.825910758584385,-7.004130909896523]]}},
{"type":"Feature","properties":{"fid":17,"Linha_invasao":"Limite de invasões","Loteamento":null},"geometry":{"type":"LineString","coordinates":[[-34.825882121619415,-7.004022142747029],[-34.825884544676519,-7.00384092576593],[-34.825886361980039,-7.003705013029569],[-34.825888179292704,-7.00356910029268],[-34.825889996614528,-7.003433187555362],[-34.825892005730822,-7.003282931807666],[-34.825893881906914,-7.003142619012848],[-34.82589569843983,-7.003006767421563],[-34.825897488919082,-7.002872864953568],[-34.825897514981889,-7.00287091582982],[-34.825899694844438,-7.002707893919085]]}},
{"type":"Feature","properties":{"fid":18,"Linha_invasao":"Limite de invasões","Loteamento":null},"geometry":{"type":"LineString","coordinates":[[-34.825897389878897,-7.002618546327706],[-34.82593121473144,-7.002440808838209],[-34.825951509638749,-7.002334166345903],[-34.825971802988626,-7.002227532021748],[-34.825992099443852,-7.002120881364455],[-34.826012394341653,-7.002014238875328],[-34.826032689236278,-7.001907596387258],[-34.826052984127749,-7.001800953900206],[-34.826073279016043,-7.001694311414227],[-34.826093573901176,-7.001587668929285],[-34.826113868783139,-7.001481026445449],[-34.826137546141425,-7.001356610215597]]}},
{"type":"Feature","properties":{"fid":19,"Linha_invasao":"Limite de invasões","Loteamento":null},"geometry":{"type":"LineString","coordinates":[[-34.826153869075711,-7.001248165859359],[-34.826173148176451,-7.001141327656271],[-34.826192427274513,-7.001034489454221],[-34.826211706369897,-7.000927651253194],[-34.826230985462608,-7.000820813053192],[-34.826250264552648,-7.000713974854212],[-34.826269543640016,-7.000607136656257],[-34.826288822724706,-7.000500298459324],[-34.826308101806724,-7.000393460263398],[-34.826327380886063,-7.000286622068528],[-34.826346659962731,-7.000179783874649]]}},
{"type":"Feature","properties":{"fid":20,"Linha_invasao":"Limite de invasões","Loteamento":null},"geometry":{"type":"LineString","coordinates":[[-34.826366414181415,-7.000080613673532],[-34.826394541747,-6.999975664362124],[-34.826422669305664,-6.999870715051832],[-34.826450796857387,-6.999765765742673],[-34.826481265031518,-6.99965208309299],[-34.826509360134494,-6.999547254804962],[-34.826537455230557,-6.999442426518083],[-34.826565550319707,-6.999337598232348],[-34.826593645401942,-6.999232769947713],[-34.826621740477279,-6.999127941664222],[-34.826649835545695,-6.999023113381863]]}},
{"type":"Feature","properties":{"fid":21,"Linha_invasao":"Limite de invasões","Loteamento":null},"geometry":{"type":"LineString","coordinates":[[-34.826678195287144,-6.998924466295334],[-34.826770855786265,-6.998518486981314],[-34.826797259376931,-6.998402803200898]]}},
{"type":"Feature","properties":{"fid":22,"Linha_invasao":"Limite de invasões","Loteamento":null},"geometry":{"type":"LineString","coordinates":[[-34.826823148861045,-6.998309874454409],[-34.826845541218965,-6.998176079018465],[-34.826867933573723,-6.998042283584061],[-34.826890325925355,-6.997908488151208],[-34.826912718273839,-6.997774692719846],[-34.826935110619175,-6.997640897290004],[-34.826957502961378,-6.997507101861669],[-34.826957502961378,-6.997507101861669],[-34.826979895300433,-6.997373306434887],[-34.827047072298768,-6.996971920163628],[-34.827069464625268,-6.99683812474292],[-34.827089049034825,-6.996724898381212],[-34.827097897245665,-6.996663716295495]]}},
{"type":"Feature","properties":{"fid":23,"Linha_invasao":"Limite de invasões","Loteamento":null},"geometry":{"type":"LineString","coordinates":[[-34.827104555303073,-6.996597028905689],[-34.82712643473004,-6.996463166286508],[-34.827148314154179,-6.996329303668839],[-34.827170193575483,-6.99619544105265],[-34.827192072993967,-6.996061578437974],[-34.827213952409615,-6.995927715824776],[-34.827235831822435,-6.995793853213092],[-34.82725771123242,-6.995659990602888],[-34.827301470043928,-6.995392265387017],[-34.827323349445443,-6.995258402781303]]}},
{"type":"Feature","properties":{"fid":24,"Linha_invasao":"Limite de invasões","Loteamento":null},"geometry":{"type":"LineString","coordinates":[[-34.827321940385417,-6.995108127798023],[-34.827389175667925,-6.994642881939944],[-34.827408573943117,-6.994508652290964],[-34.827427972216981,-6.994374422643336],[-34.827447370489516,-6.994240192997042],[-34.827466768760729,-6.994105963352133],[-34.827486167030607,-6.993971733708543],[-34.827505565299163,-6.993837504066304],[-34.827524963566383,-6.993703274425467],[-34.827544361832281,-6.993569044785935],[-34.827563760096844,-6.993434815147787],[-34.827579290789345,-6.993327347836076],[-34.827585623173341,-6.993280732825228]]}},
{"type":"Feature","properties":{"fid":25,"Linha_invasao":"Limite de invasões","Loteamento":null},"geometry":{"type":"LineString","coordinates":[[-34.82758938913809,-6.993210862733291],[-34.82759130793935,-6.993180381637132],[-34.827597938866624,-6.993070696700185],[-34.827606131788428,-6.992935174240421],[-34.827614324715633,-6.992799651780988],[-34.82762251764823,-6.992664129321899],[-34.827630710586227,-6.992528606863173],[-34.827638903529618,-6.992393084404775],[-34.827647096478408,-6.992257561946726],[-34.827655289432592,-6.992122039489004],[-34.827663482392175,-6.991986517031662],[-34.827671675357159,-6.991850994574666]]}},
{"type":"Feature","properties":{"fid":26,"Linha_invasao":"Limite de invasões","Loteamento":null},"geometry":{"type":"LineString","coordinates":[[-34.827665435623551,-6.991733260518293],[-34.827674910216381,-6.991597738405322],[-34.82768438481385,-6.991462216292841],[-34.827693859415966,-6.991326694180867],[-34.827703334022729,-6.991191172069347],[-34.827712808634139,-6.991055649958302],[-34.827722283250196,-6.990920127847796],[-34.827731757870893,-6.990784605737764],[-34.827741232496244,-6.990649083628223],[-34.827750707126242,-6.990513561519186],[-34.82776018176088,-6.990378039410604]]}},
{"type":"Feature","properties":{"fid":27,"Linha_invasao":"Limite de invasões","Loteamento":null},"geometry":{"type":"LineString","coordinates":[[-34.827766551691539,-6.99026555259657],[-34.827775488561343,-6.990121165981508],[-34.827786938934544,-6.98993617063157],[-34.827795317262634,-6.989800808180843],[-34.827803695596003,-6.989665445730482],[-34.827812073934645,-6.989530083280441],[-34.827820452278551,-6.989394720830749],[-34.827828830627737,-6.989259358381542],[-34.827837208982196,-6.989123995932654],[-34.82781941754731,-6.98784842894777],[-34.827821457003047,-6.987721865688815],[-34.827823350790332,-6.987604342662323],[-34.827825244584311,-6.98748681963548],[-34.827827138384841,-6.987369296608355],[-34.827829032192341,-6.987251773580863],[-34.827831650317293,-6.987089302634399]]}},
{"type":"Feature","properties":{"fid":28,"Linha_invasao":"Limite de invasões","Loteamento":null},"geometry":{"type":"LineString","coordinates":[[-34.827919223183947,-6.986992429568826],[-34.827919286314369,-6.986981037325888],[-34.82791997472463,-6.98685681058354],[-34.827920057851536,-6.986841810057794],[-34.827920575964193,-6.986748315394895],[-34.827920658169916,-6.986733481253483],[-34.827921177209994,-6.986639820205816],[-34.827921178778062,-6.986639537248086],[-34.827921778462027,-6.986531325016335],[-34.827922325534907,-6.986432607365909],[-34.827922379720299,-6.986422829826468],[-34.827922980984802,-6.986314334636234],[-34.827923052599765,-6.986301412147889],[-34.827923582255544,-6.986205839445566],[-34.827923616719673,-6.986199620661948],[-34.827924183532517,-6.98609734425448],[-34.827924784815728,-6.985988849063008],[-34.827925107600862,-6.985930606366852]]}},
{"type":"Feature","properties":{"fid":29,"Linha_invasao":"Limite de invasões","Loteamento":null},"geometry":{"type":"LineString","coordinates":[[-34.827925958961004,-6.985796990843228],[-34.82792566683429,-6.985670404482559],[-34.827925395143573,-6.985552873063554]]}},
{"type":"Feature","properties":{"fid":30,"Linha_invasao":"Limite de invasões","Loteamento":null},"geometry":{"type":"LineString","coordinates":[[-34.827972948676752,-6.985499140095494],[-34.827970951174755,-6.985363533713624],[-34.827968953684078,-6.985227927330742],[-34.82799615585202,-6.985227527307816],[-34.827994158364888,-6.985091920926023],[-34.827992154230841,-6.984955862521902],[-34.827913437086274,-6.984957020084882],[-34.827910071292592,-6.984728515810546]]}},
{"type":"Feature","properties":{"fid":31,"Linha_invasao":"Limite de invasões","Loteamento":null},"geometry":{"type":"LineString","coordinates":[[-34.830110042452056,-7.023761507383601],[-34.830197352509437,-7.024488079153787]]}}
]
}
